[{"OBJECT_NAME":"LEO EXPRESS 1","OBJECT_ID":"2023-174AX","EPOCH":"2026-03-09T18:25:46.135776","MEAN_MOTION":15.32756831,"ECCENTRICITY":0.00787345,"INCLINATION":97.5222,"RA_OF_ASC_NODE":152.4092,"ARG_OF_PERICENTER":115.921,"MEAN_ANOMALY":245.0174,"EPHEMERIS_TYPE":0,"CLASSIFICATION_TYPE":"U","NORAD_CAT_ID":58301,"ELEMENT_SET_NO":999,"REV_AT_EPOCH":12965,"BSTAR":0.00049741019,"MEAN_MOTION_DOT":0.00017303,"MEAN_MOTION_DDOT":0},{"OBJECT_NAME":"CLEMENTINE","OBJECT_ID":"1999-064B","EPOCH":"2026-03-09T16:58:36.056928","MEAN_MOTION":15.35516263,"ECCENTRICITY":0.00030137,"INCLINATION":98.1478,"RA_OF_ASC_NODE":152.1493,"ARG_OF_PERICENTER":134.888,"MEAN_ANOMALY":225.2607,"EPHEMERIS_TYPE":0,"CLASSIFICATION_TYPE":"U","NORAD_CAT_ID":25978,"ELEMENT_SET_NO":999,"REV_AT_EPOCH":69326,"BSTAR":0.00073237902,"MEAN_MOTION_DOT":0.00025245,"MEAN_MOTION_DDOT":0}]
